FORMOSAT-3 FM2          
1 29052U 06011F   17345.95104878  .00000029  00000-0  27540-4 0  9991
2 29052  72.0345 238.1117 0039728 161.6421 198.6160 14.28730679608501
